#aV2010  2  1  0  0   .00000000      96 DD+AD WGS84 FIT  NGA
## 1569  86400.00000000   900.00000000 55228  .0000000000000
+   32     1  2  3  4  5  6  7  8  9 10 11 12 13 14 15 16 17
+         18 19 20 21 22 23 24 25 26 27 28 29 30 31 32  0  0
+          0  0  0  0  0  0  0  0  0  0  0  0  0  0  0  0  0
+          0  0  0  0  0  0  0  0  0  0  0  0  0  0  0  0  0
+          0  0  0  0  0  0  0  0  0  0  0  0  0  0  0  0  0
++         0  0  0  0  0  0  0  0  0  0  0  0  0  0  0  0  0
++         0  0  0  0  0  0  0  0  0  0  0  0  0  0  0  0  0
++         0  0  0  0  0  0  0  0  0  0  0  0  0  0  0  0  0
++         0  0  0  0  0  0  0  0  0  0  0  0  0  0  0  0  0
++         0  0  0  0  0  0  0  0  0  0  0  0  0  0  0  0  0
%c cc cc ccc ccc cccc cccc cccc cccc ccccc ccccc ccccc ccccc
%c cc cc ccc ccc cccc cccc cccc cccc ccccc ccccc ccccc ccccc
%f  0.0000000  0.000000000  0.00000000000  0.000000000000000
%f  0.0000000  0.000000000  0.00000000000  0.000000000000000
%i    0    0    0    0      0      0      0      0         0
%i    0    0    0    0      0      0      0      0         0
/*      NGA, ST. LOUIS,MO.                                  
/*   EPHEMERIS COMPUTED FROM  3 DAYS OF DATA                
/* CCCCCCCCCCCCCCCCCCCCCCCCCCCCCCCCCCCCCCCCCCCCCCCCCCCCCCCCC
/* CCCCCCCCCCCCCCCCCCCCCCCCCCCCCCCCCCCCCCCCCCCCCCCCCCCCCCCCC
*  2010  2  1  5 30   .00000000                                                 
P  1  18358.283200  18111.539136   6574.079968    -84.699779                    
V  1   2819.115040   8351.406662 -30248.964418      -.035310                    
P  2 -15352.808133  13672.616354  16515.686542    221.845636                    
V  2 -21460.121581   -344.908010 -20032.795958       .041507                    
P  3   9656.573828 -24427.715584   1988.578567    509.769145                    
V  3   3033.244854   4143.478234  31080.976921       .050538                    
P  4 -25359.157460   6237.384763   5643.005512      4.245030                    
V  4  -7556.796200  -2490.192598 -29938.636965       .092056                    
P  5  -3536.076685  18151.156373  19012.901429    -11.553084                    
V  5 -15085.462032 -18999.894836  15400.742866       .030496                    
P  6  13493.081539 -22174.266695   5508.823094    255.021178                    
V  6    736.065841   7674.951666  30185.056951      -.041909                    
P  7 -21540.016011  -7602.573711  13678.229548      3.486835                    
V  7  17084.051730  -3303.727947  24901.823642      -.005498                    
P  8 -26755.613901   -868.186767   2058.192678      2.786145                    
V  8   2565.064686  -1439.537701  31929.324656       .004130                    
P  9   2873.644868  14877.935183 -22477.590177    103.422361                    
V  9 -26708.172891   3162.416898  -1321.111161       .022250                    
P 10  -9225.265407  13002.133862  21008.618781    -34.281916                    
V 10 -15726.322618 -22184.386052   7110.774044      -.009796                    
P 11  -8592.860854 -14807.151017 -20595.489486    -42.867733                    
V 11  24487.225755  -8436.644432  -3832.569752      -.021027                    
P 12  10665.594712  23500.803945  -6526.692329   -155.744019                    
V 12  -6617.381717  -5555.139855 -30412.022350       .048353                    
P 13 -10411.841750 -10604.222344  21881.862515    306.614616                    
V 13  13779.883554 -24386.690942  -5242.977664      -.000716                    
P 14  17553.108792  -7515.985206 -18271.892621      6.694630                    
V 14  -9814.095370  21347.746680 -18188.957357       .043631                    
P 15  -6036.798345  24928.783394  -6654.435018   -309.816589                    
V 15  -6180.964060   6555.795878  30163.606182       .026287                    
P 16   9484.929524 -12357.947192  21525.741200    -36.692152                    
V 16  15488.502951  22399.764228   6302.336477      -.040541                    
P 17 -17903.306145   8931.069203 -17280.665193    126.101124                    
V 17   8172.591988 -20710.853510 -19283.919985       .031783                    
P 18  19139.672971  15520.221734 -10126.866981     45.871805                    
V 18   4846.240992  12553.864735  27330.659523       .026416                    
P 19   6736.625571 -24067.035048  -8514.304107    -12.964954                    
V 19   7926.269041  -8095.834285  29318.612791      -.022713                    
P 20 -13762.070302 -22543.383927  -3225.595293     62.182473                    
V 20   5096.561111   1127.108433 -30859.109013      -.007701                    
P 21  24569.085053   5474.017118   9705.983616    -37.708841                    
V 21 -11527.872493   3572.267725  27417.885144      -.024775                    
P 22  18578.412746   3519.717813 -18522.272189    180.171785                    
V 22  11588.307218  20984.349818  15400.198733      -.011327                    
P 23  -3629.585530 -19765.611328  17182.006334    381.017093                    
V 23  11060.362178 -19061.670600 -19855.348305      -.009254                    
P 24  15650.507449  12136.333151  17683.587286    258.629237                    
V 24 -22309.318869   2718.307544  18218.643183       .033602                    
P 25 -15936.244595 -10230.838660  18884.927057     90.746645                    
V 25  22710.255544  -5392.838679  16741.174617       .072064                    
P 26  15311.135041   2246.278623 -22194.437696    -14.451997                    
V 26 -12750.349446  23488.654889  -6133.806515      -.033377                    
P 27   -283.623496  14662.501638 -21447.245452    122.213742                    
V 27 -28630.060538   3747.263297   2949.876618       .034724                    
P 28 -18645.032377  -6960.482777 -17272.598696    -22.812252                    
V 28 -11095.316980 -19879.627756  19171.830305       .006199                    
P 29   9043.227761  14152.747376  20676.674426     94.507653                    
V 29 -12516.006022  22848.613800 -10175.143101       .030948                    
P 30  17355.015577  19957.121986   2375.976826    215.614277                    
V 30   -250.559801   4572.292350 -31394.842405       .032953                    
P 31  24106.965064  -7792.505750   8463.544478    -53.202493                    
V 31  10515.396132   1120.253457 -29525.598047       .014428                    
P 32  -5531.059708 -23900.214700 -10215.658909    104.738578                    
V 32   8720.253199  10433.075469 -27830.086016      -.082311                    
EOF
